INTELSAT 902 (IS-902)   
1 26900U 01039A   26161.54387561 -.00000268  00000+0  00000+0 0  9990
2 26900   6.1014  71.8642 0004481   3.8108 328.9149  1.00272398 90621
INTELSAT 904 (IS-904)   
1 27380U 02007A   26161.04856463 -.00000210  00000+0  00000+0 0  9993
2 27380   6.9013  69.2690 0006669   1.5212 173.6141  1.00272517 51690
DIRECTV 5 (TEMPO 1)     
1 27426U 02023A   26161.34072644 -.00000041  00000+0  00000+0 0  9998
2 27426   4.8594  75.3941 0003291  15.1698 180.6971  1.00271485 88058
INTELSAT 905 (IS-905)   
1 27438U 02027A   26161.43030926  .00000108  00000+0  00000+0 0  9995
2 27438   6.7358  69.8797 0003904  16.3553 190.2516  1.00271189 51290
GALAXY 3C (G-3C)        
1 27445U 02030A   26161.32110767 -.00000136  00000+0  00000+0 0  9999
2 27445   3.7124  78.0665 0001695  32.8303 168.5370  1.00271349 46426
INTELSAT 906 (IS-906)   
1 27513U 02041A   26161.21009809  .00000029  00000+0  00000+0 0  9999
2 27513   5.7858  73.0072 0004663 359.9055 325.4249  1.00271538 86951
GALAXY 13 (HORIZONS-1)  
1 27954U 03044A   26161.52411552  .00000150  00000+0  00000+0 0  9993
2 27954   1.4029  83.9416 0002118 352.7194 220.9080  1.00274235 46509
INTELSAT 10-02          
1 28358U 04022A   26161.41097747  .00000006  00000+0  00000+0 0  9993
2 28358   0.0147 325.8765 0000196 212.9419 226.8974  1.00269703 80486
DIRECTV 8               
1 28659U 05019A   26161.53026888  .00000019  00000+0  00000+0 0  9999
2 28659   0.0151  28.1346 0002892  54.9636 247.6417  1.00271749 77003
GALAXY 28 (G-28)        
1 28702U 05022A   26161.47719218 -.00000183  00000+0  00000+0 0  9994
2 28702   3.2822  79.0142 0002849 356.7937 327.7156  1.00272036 51901
GALAXY 16 (G-16)        
1 29236U 06023A   26161.53416890  .00000000  00000+0  00000+0 0  9993
2 29236   0.0121  55.1058 0002428  30.3002 266.7817  1.00269827 72906
DIRECTV 9S              
1 29494U 06043A   26161.53373557 -.00000096  00000+0  00000+0 0  9999
2 29494   2.4027  80.9801 0004950   8.6390 260.2331  1.00271123 51319
GALAXY 17 (G-17)        
1 31307U 07016B   26161.46566545 -.00000189  00000+0  00000+0 0  9992
2 31307   2.9542  79.9831 0004805  18.0662 243.4248  1.00270850 69730
INTELSAT 11 (IS-11)     
1 32253U 07044B   26161.51321569 -.00000257  00000+0  00000+0 0  9991
2 32253   3.5472  78.7487 0002006  86.5430  73.5052  0.99053336 68388
HORIZONS-2              
1 32388U 07063B   26161.53919559 -.00000237  00000+0  00000+0 0  9993
2 32388   2.5841  80.7054 0003871 357.3899 301.1453  1.00270900 67743
DIRECTV 11              
1 32729U 08013A   26161.46289211 -.00000108  00000+0  00000+0 0  9992
2 32729   0.0128 233.9755 0000344 156.3804 295.9321  1.00271899 45522
GALAXY 18 (G-18)        
1 32951U 08024A   26161.52948888  .00000042  00000+0  00000+0 0  9996
2 32951   0.0186 318.9668 0003107 132.7349 234.8109  1.00272644 45785
INTELSAT 25 (IS-25)     
1 33153U 08034A   26161.51243569 -.00000263  00000+0  00000+0 0  9991
2 33153   2.6914  80.4448 0002980  51.9658 102.2722  0.99036636 65627
GALAXY 19 (G-19)        
1 33376U 08045A   26161.53460223 -.00000122  00000+0  00000+0 0  9994
2 33376   0.0126 277.9937 0002644 161.3876 274.9798  1.00270927 64830
FM-5                    
1 35493U 09034A   26161.53676891 -.00000183  00000+0  00000+0 0  9992
2 35493   0.0165 294.4785 0000650 355.8501  75.6595  1.00270546 46579
INTELSAT 14 (IS-14)     
1 36097U 09064A   26161.47337883 -.00000256  00000+0  00000+0 0  9995
2 36097   0.0176 350.5521 0002723 106.7049 286.9952  1.00269815 60530
INTELSAT 15 (IS-15)     
1 36106U 09067A   26161.49940784 -.00000167  00000+0  00000+0 0  9992
2 36106   0.0165 355.9709 0002184  87.9052  79.9203  1.00270726 41161
DIRECTV 12              
1 36131U 09075A   26161.46219877 -.00000086  00000+0  00000+0 0  9998
2 36131   0.0318 158.8061 0000301 239.6820 284.0043  1.00272017 46484
INTELSAT 16 (IS-16)     
1 36397U 10006A   26161.32483435 -.00000227  00000+0  00000+0 0  9993
2 36397   0.0079 326.9433 0002114 132.6639 199.8215  1.00269318 59586
XM-5                    
1 37185U 10053A   26161.59071329 -.00000005  00000+0  00000+0 0  9999
2 37185   0.0645 273.7385 0002952 284.8294 157.8394  1.00269640 57413
INTELSAT 17 (IS-17)     
1 37238U 10065B   26161.46850265  .00000016  00000+0  00000+0 0  9992
2 37238   0.0097 125.3619 0002540 323.6570  44.4737  1.00272832 53186
INTELSAT 28 (IS-28)     
1 37392U 11016A   26161.33367440 -.00000208  00000+0  00000+0 0  9998
2 37392   1.7876  82.7052 0003727   1.5407 262.8702  1.00271753 53219
INTELSAT 18 (IS-18)     
1 37834U 11056A   26160.87655971  .00000070  00000+0  00000+0 0  9996
2 37834   0.0170 310.4216 0002098 144.0429 299.3507  1.00272225 53739
INTELSAT 22 (IS-22)     
1 38098U 12011A   26161.56808466 -.00000041  00000+0  00000+0 0  9996
2 38098   0.0114 332.6438 0001509 101.2304 101.6413  1.00272131  7124
INTELSAT 19 (IS-19)     
1 38356U 12030A   26161.53169728 -.00000039  00000+0  00000+0 0  9999
2 38356   0.0142 330.0554 0002984 117.6834 168.5701  1.00271860 50386
INTELSAT 20 (IS-20)     
1 38740U 12043A   26161.56739133 -.00000008  00000+0  00000+0 0  9992
2 38740   0.0068 107.3960 0001960  70.9558 353.3520  1.00273748 50686
