OBJECT_NAME,OBJECT_ID,EPOCH,MEAN_MOTION,ECCENTRICITY,INCLINATION,RA_OF_ASC_NODE,ARG_OF_PERICENTER,MEAN_ANOMALY,EPHEMERIS_TYPE,CLASSIFICATION_TYPE,NORAD_CAT_ID,ELEMENT_SET_NO,REV_AT_EPOCH,BSTAR,MEAN_MOTION_DOT,MEAN_MOTION_DDOT
INTELSAT 902 (IS-902),2001-039A,2026-06-10T13:03:10.852704,1.00272398,.00044817,6.1014,71.8642,3.8108,328.9149,0,U,26900,999,9062,0,-.268E-5,0
INTELSAT 904 (IS-904),2002-007A,2026-06-10T01:09:55.984032,1.00272517,.0006669,6.9013,69.2690,1.5212,173.6141,0,U,27380,999,5169,0,-.21E-5,0
DIRECTV 5 (TEMPO 1),2002-023A,2026-06-10T08:10:38.764416,1.00271485,.00032919,4.8594,75.3941,15.1698,180.6971,0,U,27426,999,8805,0,-.41E-6,0
INTELSAT 905 (IS-905),2002-027A,2026-06-10T10:19:38.720064,1.00271189,.00039048,6.7358,69.8797,16.3553,190.2516,0,U,27438,999,5129,0,.108E-5,0
GALAXY 3C (G-3C),2002-030A,2026-06-10T07:42:23.702688,1.00271349,.0001695,3.7124,78.0665,32.8303,168.5370,0,U,27445,999,4642,0,-.136E-5,0
INTELSAT 906 (IS-906),2002-041A,2026-06-10T05:02:32.474976,1.00271538,.0004663,5.7858,73.0072,359.9055,325.4249,0,U,27513,999,8695,0,.29E-6,0
GALAXY 13 (HORIZONS-1),2003-044A,2026-06-10T12:34:43.580928,1.00274235,.0002118,1.4029,83.9416,352.7194,220.9080,0,U,27954,999,4650,0,.15E-5,0
INTELSAT 10-02,2004-022A,2026-06-10T09:51:48.453408,1.00269703,.00001966,0.0147,325.8765,212.9419,226.8974,0,U,28358,999,8048,0,.6E-7,0
DIRECTV 8,2005-019A,2026-06-10T12:43:35.231232,1.00271749,.00028925,0.0151,28.1346,54.9636,247.6417,0,U,28659,999,7700,0,.19E-6,0
GALAXY 28 (G-28),2005-022A,2026-06-10T11:27:09.404352,1.00272036,.00028494,3.2822,79.0142,356.7937,327.7156,0,U,28702,999,5190,0,-.183E-5,0
GALAXY 16 (G-16),2006-023A,2026-06-10T12:49:12.192960,1.00269827,.00024283,0.0121,55.1058,30.3002,266.7817,0,U,29236,999,7290,0,0,0
DIRECTV 9S,2006-043A,2026-06-10T12:48:34.753248,1.00271123,.000495,2.4027,80.9801,8.6390,260.2331,0,U,29494,999,5131,0,-.96E-6,0
GALAXY 17 (G-17),2007-016B,2026-06-10T11:10:33.494880,1.00270850,.00048053,2.9542,79.9831,18.0662,243.4248,0,U,31307,999,6973,0,-.189E-5,0
INTELSAT 11 (IS-11),2007-044B,2026-06-10T12:19:01.835616,0.99053336,.00020068,3.5472,78.7487,86.5430,73.5052,0,U,32253,999,6838,0,-.257E-5,0
HORIZONS-2,2007-063B,2026-06-10T12:56:26.498976,1.00270900,.00038717,2.5841,80.7054,357.3899,301.1453,0,U,32388,999,6774,0,-.237E-5,0
DIRECTV 11,2008-013A,2026-06-10T11:06:33.878304,1.00271899,.00003441,0.0128,233.9755,156.3804,295.9321,0,U,32729,999,4552,0,-.108E-5,0
GALAXY 18 (G-18),2008-024A,2026-06-10T12:42:27.839232,1.00272644,.00031076,0.0186,318.9668,132.7349,234.8109,0,U,32951,999,4578,0,.42E-6,0
INTELSAT 25 (IS-25),2008-034A,2026-06-10T12:17:54.443616,0.99036636,.00029804,2.6914,80.4448,51.9658,102.2722,0,U,33153,999,6562,0,-.263E-5,0
GALAXY 19 (G-19),2008-045A,2026-06-10T12:49:49.632672,1.00270927,.00026445,0.0126,277.9937,161.3876,274.9798,0,U,33376,999,6483,0,-.122E-5,0
FM-5,2009-034A,2026-06-10T12:52:56.833824,1.00270546,.00006502,0.0165,294.4785,355.8501,75.6595,0,U,35493,999,4657,0,-.183E-5,0
INTELSAT 14 (IS-14),2009-064A,2026-06-10T11:21:39.930912,1.00269815,.00027238,0.0176,350.5521,106.7049,286.9952,0,U,36097,999,6053,0,-.256E-5,0
INTELSAT 15 (IS-15),2009-067A,2026-06-10T11:59:08.837376,1.00270726,.00021849,0.0165,355.9709,87.9052,79.9203,0,U,36106,999,4116,0,-.167E-5,0
DIRECTV 12,2009-075A,2026-06-10T11:05:33.973728,1.00272017,.00003017,0.0318,158.8061,239.6820,284.0043,0,U,36131,999,4648,0,-.86E-6,0
INTELSAT 16 (IS-16),2010-006A,2026-06-10T07:47:45.687840,1.00269318,.00021147,0.0079,326.9433,132.6639,199.8215,0,U,36397,999,5958,0,-.227E-5,0
XM-5,2010-053A,2026-06-10T14:10:37.628256,1.00269640,.00029522,0.0645,273.7385,284.8294,157.8394,0,U,37185,999,5741,0,-.5E-7,0
INTELSAT 17 (IS-17),2010-065B,2026-06-10T11:14:38.628960,1.00272832,.00025409,0.0097,125.3619,323.6570,44.4737,0,U,37238,999,5318,0,.16E-6,0
INTELSAT 28 (IS-28),2011-016A,2026-06-10T08:00:29.468160,1.00271753,.00037279,1.7876,82.7052,1.5407,262.8702,0,U,37392,999,5321,0,-.208E-5,0
INTELSAT 18 (IS-18),2011-056A,2026-06-09T21:02:14.758944,1.00272225,.00020989,0.0170,310.4216,144.0429,299.3507,0,U,37834,999,5373,0,.7E-6,0
INTELSAT 22 (IS-22),2012-011A,2026-06-10T13:38:02.514624,1.00272131,.00015092,0.0114,332.6438,101.2304,101.6413,0,U,38098,999,712,0,-.41E-6,0
INTELSAT 19 (IS-19),2012-030A,2026-06-10T12:45:38.644992,1.00271860,.0002984,0.0142,330.0554,117.6834,168.5701,0,U,38356,999,5038,0,-.39E-6,0
INTELSAT 20 (IS-20),2012-043A,2026-06-10T13:37:02.610912,1.00273748,.00019606,0.0068,107.3960,70.9558,353.3520,0,U,38740,999,5068,0,-.8E-7,0
